CTC2_L_00134001-01
1 81496U 22733AY  26070.40843750  .00000000  00000+0  00000-0 0  9990
2 81496  80.0000   0.0000 0000000   0.0000   0.0000 13.03091871    12
CTC2_L_00134001-02
1 81497U 23402HK  26070.40843750  .00000000  00000+0  00000-0 0  9995
2 81497  80.0000   0.0000 0000000   0.0000  90.0000 13.03091871    12
CTC2_L_00134001-03
1 81498U 26081TU  26070.40843750  .00000000  00000+0  00000-0 0  9992
2 81498  80.0000   0.0000 0000000   0.0000 180.0000 13.03091871    13
CTC2_L_00134001-04
1 81499U 26240CX  26070.40843750  .00000000  00000+0  00000-0 0  9990
2 81499  80.0000   0.0000 0000000   0.0000 270.0000 13.03091871    14
CTC2_L_00134002-01
1 81500U 22039ZO  26070.40843750  .00000000  00000+0  00000-0 0  9995
2 81500  80.0000  12.0000 0000000   0.0000  12.0000 13.03091871    14
CTC2_L_00134002-02
1 81501U 23391FJ  26070.40843750  .00000000  00000+0  00000-0 0  9998
2 81501  80.0000  12.0000 0000000   0.0000 102.0000 13.03091871    15
CTC2_L_00134002-03
1 81502U 23713WD  26070.40843750  .00000000  00000+0  00000-0 0  9997
2 81502  80.0000  12.0000 0000000   0.0000 192.0000 13.03091871    15
CTC2_L_00134002-04
1 81503U 22552HV  26070.40843750  .00000000  00000+0  00000-0 0  9998
2 81503  80.0000  12.0000 0000000   0.0000 282.0000 13.03091871    16
CTC2_L_00134003-01
1 81504U 26064DD  26070.40843750  .00000000  00000+0  00000-0 0  9991
2 81504  80.0000  24.0000 0000000   0.0000  24.0000 13.03091871    14
CTC2_L_00134003-02
1 81505U 24078OS  26070.40843750  .00000000  00000+0  00000-0 0  9995
2 81505  80.0000  24.0000 0000000   0.0000 114.0000 13.03091871    15
CTC2_L_00134003-03
1 81506U 22757VK  26070.40843750  .00000000  00000+0  00000-0 0  9998
2 81506  80.0000  24.0000 0000000   0.0000 204.0000 13.03091871    16
CTC2_L_00134003-04
1 81507U 23564ZH  26070.40843750  .00000000  00000+0  00000-0 0  9996
2 81507  80.0000  24.0000 0000000   0.0000 294.0000 13.03091871    16
CTC2_L_00134004-01
1 81508U 26718YW  26070.40843750  .00000000  00000+0  00000-0 0  9991
2 81508  80.0000  36.0000 0000000   0.0000  36.0000 13.03091871    14
CTC2_L_00134004-02
1 81509U 24392UI  26070.40843750  .00000000  00000+0  00000-0 0  9998
2 81509  80.0000  36.0000 0000000   0.0000 126.0000 13.03091871    15
CTC2_L_00134004-03
1 81510U 25161S   26070.40843750  .00000000  00000+0  00000-0 0  9995
2 81510  80.0000  36.0000 0000000   0.0000 216.0000 13.03091871    17
CTC2_L_00134004-04
1 81511U 26029AA  26070.40843750  .00000000  00000+0  00000-0 0  9990
2 81511  80.0000  36.0000 0000000   0.0000 306.0000 13.03091871    18
CTC2_L_00134005-01
1 81512U 24571AX  26070.40843750  .00000000  00000+0  00000-0 0  9991
2 81512  80.0000  48.0000 0000000   0.0000  48.0000 13.03091871    15
CTC2_L_00134005-02
1 81513U 24921FP  26070.40843750  .00000000  00000+0  00000-0 0  9991
2 81513  80.0000  48.0000 0000000   0.0000 138.0000 13.03091871    16
CTC2_L_00134005-03
1 81514U 24070RF  26070.40843750  .00000000  00000+0  00000-0 0  9997
2 81514  80.0000  48.0000 0000000   0.0000 228.0000 13.03091871    17
CTC2_L_00134005-04
1 81515U 26811IX  26070.40843750  .00000000  00000+0  00000-0 0  9993
2 81515  80.0000  48.0000 0000000   0.0000 318.0000 13.03091871    18
CTC2_L_00134006-01
1 81516U 25163MP  26070.40843750  .00000000  00000+0  00000-0 0  9993
2 81516  80.0000  60.0000 0000000   0.0000  60.0000 13.03091871    17
CTC2_L_00134006-02
1 81517U 25861QH  26070.40843750  .00000000  00000+0  00000-0 0  9999
2 81517  80.0000  60.0000 0000000   0.0000 150.0000 13.03091871    18
CTC2_L_00134006-03
1 81518U 23853PY  26070.40843750  .00000000  00000+0  00000-0 0  9999
2 81518  80.0000  60.0000 0000000   0.0000 240.0000 13.03091871    19
CTC2_L_00134006-04
1 81519U 24282UK  26070.40843750  .00000000  00000+0  00000-0 0  9997
2 81519  80.0000  60.0000 0000000   0.0000 330.0000 13.03091871    10
CTC2_L_00134007-01
1 81520U 22759VS  26070.40843750  .00000000  00000+0  00000-0 0  9996
2 81520  80.0000  72.0000 0000000   0.0000  72.0000 13.03091871    18
CTC2_L_00134007-02
1 81521U 24026M   26070.40843750  .00000000  00000+0  00000-0 0  9996
2 81521  80.0000  72.0000 0000000   0.0000 162.0000 13.03091871    19
CTC2_L_00134007-03
1 81522U 23722DJ  26070.40843750  .00000000  00000+0  00000-0 0  9999
2 81522  80.0000  72.0000 0000000   0.0000 252.0000 13.03091871    10
CTC2_L_00134007-04
1 81523U 26784SE  26070.40843750  .00000000  00000+0  00000-0 0  9991
2 81523  80.0000  72.0000 0000000   0.0000 342.0000 13.03091871    11
CTC2_L_00134008-01
1 81524U 24603GV  26070.40843750  .00000000  00000+0  00000-0 0  9990
2 81524  80.0000  84.0000 0000000   0.0000  84.0000 13.03091871    18
CTC2_L_00134008-02
1 81525U 24168MU  26070.40843750  .00000000  00000+0  00000-0 0  9997
2 81525  80.0000  84.0000 0000000   0.0000 174.0000 13.03091871    19
CTC2_L_00134008-03
1 81526U 24394QF  26070.40843750  .00000000  00000+0  00000-0 0  9999
2 81526  80.0000  84.0000 0000000   0.0000 264.0000 13.03091871    10
CTC2_L_00134008-04
1 81527U 26284QI  26070.40843750  .00000000  00000+0  00000-0 0  9990
2 81527  80.0000  84.0000 0000000   0.0000 354.0000 13.03091871    11
CTC2_L_00134009-01
1 81528U 22267RZ  26070.40843750  .00000000  00000+0  00000-0 0  9998
2 81528  80.0000  96.0000 0000000   0.0000  96.0000 13.03091871    18
CTC2_L_00134009-02
1 81529U 23710UW  26070.40843750  .00000000  00000+0  00000-0 0  9993
2 81529  80.0000  96.0000 0000000   0.0000 186.0000 13.03091871    19
CTC2_L_00134009-03
1 81530U 22841HP  26070.40843750  .00000000  00000+0  00000-0 0  9999
2 81530  80.0000  96.0000 0000000   0.0000 276.0000 13.03091871    11
CTC2_L_00134009-04
1 81531U 24308SX  26070.40843750  .00000000  00000+0  00000-0 0  9990
2 81531  80.0000  96.0000 0000000   0.0000   6.0000 13.03091871    13
CTC2_L_00134010-01
1 81532U 25791LK  26070.40843750  .00000000  00000+0  00000-0 0  9998
2 81532  80.0000 108.0000 0000000   0.0000 108.0000 13.03091871    11
CTC2_L_00134010-02
1 81533U 24952VV  26070.40843750  .00000000  00000+0  00000-0 0  9997
2 81533  80.0000 108.0000 0000000   0.0000 198.0000 13.03091871    11
CTC2_L_00134010-03
1 81534U 25752MH  26070.40843750  .00000000  00000+0  00000-0 0  9997
2 81534  80.0000 108.0000 0000000   0.0000 288.0000 13.03091871    12
CTC2_L_00134010-04
1 81535U 24616N   26070.40843750  .00000000  00000+0  00000-0 0  9996
2 81535  80.0000 108.0000 0000000   0.0000  18.0000 13.03091871    14
CTC2_L_00134011-01
1 81536U 22385QX  26070.40843750  .00000000  00000+0  00000-0 0  9998
2 81536  80.0000 120.0000 0000000   0.0000 120.0000 13.03091871    13
CTC2_L_00134011-02
1 81537U 22607VG  26070.40843750  .00000000  00000+0  00000-0 0  9996
2 81537  80.0000 120.0000 0000000   0.0000 210.0000 13.03091871    14
CTC2_L_00134011-03
1 81538U 25393CI  26070.40843750  .00000000  00000+0  00000-0 0  9992
2 81538  80.0000 120.0000 0000000   0.0000 300.0000 13.03091871    15
CTC2_L_00134011-04
1 81539U 25576QM  26070.40843750  .00000000  00000+0  00000-0 0  9996
2 81539  80.0000 120.0000 0000000   0.0000  30.0000 13.03091871    16
CTC2_L_00134012-01
1 81540U 24464LX  26070.40843750  .00000000  00000+0  00000-0 0  9993
2 81540  80.0000 132.0000 0000000   0.0000 132.0000 13.03091871    14
CTC2_L_00134012-02
1 81541U 23276YQ  26070.40843750  .00000000  00000+0  00000-0 0  9994
2 81541  80.0000 132.0000 0000000   0.0000 222.0000 13.03091871    15
CTC2_L_00134012-03
1 81542U 23282DG  26070.40843750  .00000000  00000+0  00000-0 0  9992
2 81542  80.0000 132.0000 0000000   0.0000 312.0000 13.03091871    16
CTC2_L_00134012-04
1 81543U 26645UK  26070.40843750  .00000000  00000+0  00000-0 0  9999
2 81543  80.0000 132.0000 0000000   0.0000  42.0000 13.03091871    17
CTC2_L_00134013-01
1 81544U 23083GK  26070.40843750  .00000000  00000+0  00000-0 0  9993
2 81544  80.0000 144.0000 0000000   0.0000 144.0000 13.03091871    14
CTC2_L_00134013-02
1 81545U 23940NB  26070.40843750  .00000000  00000+0  00000-0 0  9996
2 81545  80.0000 144.0000 0000000   0.0000 234.0000 13.03091871    15
CTC2_L_00134013-03
1 81546U 22256KO  26070.40843750  .00000000  00000+0  00000-0 0  9996
2 81546  80.0000 144.0000 0000000   0.0000 324.0000 13.03091871    16
CTC2_L_00134013-04
1 81547U 24968FZ  26070.40843750  .00000000  00000+0  00000-0 0  9999
2 81547  80.0000 144.0000 0000000   0.0000  54.0000 13.03091871    17
CTC2_L_00134014-01
1 81548U 22509RN  26070.40843750  .00000000  00000+0  00000-0 0  9999
2 81548  80.0000 156.0000 0000000   0.0000 156.0000 13.03091871    14
CTC2_L_00134014-02
1 81549U 23215CU  26070.40843750  .00000000  00000+0  00000-0 0  9995
2 81549  80.0000 156.0000 0000000   0.0000 246.0000 13.03091871    15
CTC2_L_00134014-03
1 81550U 26586WL  26070.40843750  .00000000  00000+0  00000-0 0  9991
2 81550  80.0000 156.0000 0000000   0.0000 336.0000 13.03091871    17
CTC2_L_00134014-04
1 81551U 24554BR  26070.40843750  .00000000  00000+0  00000-0 0  9995
2 81551  80.0000 156.0000 0000000   0.0000  66.0000 13.03091871    18
CTC2_L_00134015-01
1 81552U 25147R   26070.40843750  .00000000  00000+0  00000-0 0  9995
2 81552  80.0000 168.0000 0000000   0.0000 168.0000 13.03091871    15
CTC2_L_00134015-02
1 81553U 22527IZ  26070.40843750  .00000000  00000+0  00000-0 0  9995
2 81553  80.0000 168.0000 0000000   0.0000 258.0000 13.03091871    16
CTC2_L_00134015-03
1 81554U 24771XI  26070.40843750  .00000000  00000+0  00000-0 0  9999
2 81554  80.0000 168.0000 0000000   0.0000 348.0000 13.03091871    17
CTC2_L_00134015-04
1 81555U 24091SX  26070.40843750  .00000000  00000+0  00000-0 0  9995
2 81555  80.0000 168.0000 0000000   0.0000  78.0000 13.03091871    18
CTC2_L_00134016-01
1 81556U 26890LX  26070.40843750  .00000000  00000+0  00000-0 0  9995
2 81556  80.0000 180.0000 0000000   0.0000 180.0000 13.03091871    17
CTC2_L_00134016-02
1 81557U 22982YJ  26070.40843750  .00000000  00000+0  00000-0 0  9994
2 81557  80.0000 180.0000 0000000   0.0000 270.0000 13.03091871    18
